-- MySQL dump 10.13  Distrib 8.0.19, for Win64 (x86_64)
--
-- Host: 127.0.0.1    Database: airports
-- ------------------------------------------------------
-- Server version	8.0.19

/*!40101 SET @OLD_CHARACTER_SET_CLIENT=@@CHARACTER_SET_CLIENT */;
/*!40101 SET @OLD_CHARACTER_SET_RESULTS=@@CHARACTER_SET_RESULTS */;
/*!40101 SET @OLD_COLLATION_CONNECTION=@@COLLATION_CONNECTION */;
/*!50503 SET NAMES utf8 */;
/*!40103 SET @OLD_TIME_ZONE=@@TIME_ZONE */;
/*!40103 SET TIME_ZONE='+00:00' */;
/*!40014 SET @OLD_UNIQUE_CHECKS=@@UNIQUE_CHECKS, UNIQUE_CHECKS=0 */;
/*!40014 SET @OLD_FOREIGN_KEY_CHECKS=@@FOREIGN_KEY_CHECKS, FOREIGN_KEY_CHECKS=0 */;
/*!40101 SET @OLD_SQL_MODE=@@SQL_MODE, SQL_MODE='NO_AUTO_VALUE_ON_ZERO' */;
/*!40111 SET @OLD_SQL_NOTES=@@SQL_NOTES, SQL_NOTES=0 */;

--
-- Table structure for table `metar`
--

DROP TABLE IF EXISTS `metar`;
/*!40101 SET @saved_cs_client     = @@character_set_client */;
/*!50503 SET character_set_client = utf8mb4 */;
CREATE TABLE `metar` (
  `airport_id` int NOT NULL AUTO_INCREMENT,
  `metar_value` varchar(1000) NOT NULL,
  `icaoM` varchar(45) NOT NULL,
  `name` varchar(200) NOT NULL,
  `temperature` int NOT NULL,
  `wind` int NOT NULL,
  `visibility` varchar(45) NOT NULL,
  `elevation` int NOT NULL,
  PRIMARY KEY (`airport_id`),
  KEY `fk_icao_idx` (`icaoM`),
  CONSTRAINT `fk_icao` FOREIGN KEY (`icaoM`) REFERENCES `subscriptions` (`icao`)
) ENGINE=InnoDB AUTO_INCREMENT=38 DEFAULT CHARSET=utf8mb4 COLLATE=utf8mb4_0900_ai_ci;
/*!40101 SET character_set_client = @saved_cs_client */;

--
-- Dumping data for table `metar`
--

LOCK TABLES `metar` WRITE;
/*!40000 ALTER TABLE `metar` DISABLE KEYS */;
INSERT INTO `metar` VALUES (11,'LJLJ 201100Z 25006KT 210V300 9999 FEW050 12/04 Q1025 NOSIG','LJLJ','Ljubljana Jože Pučnik Airport',12,11,'10,000+',363),(16,'LQSA 192000Z VRB01KT 6000 FEW040 BKN050 05/05 Q1024','LQSA','Sarajevo International Airport',5,2,'6,000',505),(17,'LQTZ 192000Z VRB01KT 9999 FEW045 07/02 Q1023','LQTZ','Tuzla International Airport',7,2,'10,000+',242),(18,'LDOS 192000Z 21003KT 170V270 CAVOK 05/04 Q1022','LDOS','Osijek Airport',5,6,'10,000+',82),(19,'LDZD 192000Z 12005KT 9999 FEW015 08/07 Q1026','LDZD','Zadar Airport',8,9,'10,000+',82),(20,'LDPL 192000Z 10003KT 9999 SCT045 OVC055 10/08 Q1025 NOSIG','LDPL','Pula Airport',10,6,'10,000+',63),(21,'LIPQ 201120Z AUTO 36005KT 9999 FEW027/// BKN038/// 12/05 Q1026','LIPQ','Trieste–Friuli Venezia Giulia Airport',12,9,'10,000+',6),(25,'LDZA 201100Z 26004KT 210V320 9999 FEW040 15/06 Q1025 NOSIG','LDZA','Zagreb Airport',15,7,'10,000+',103),(27,'EDDF 201120Z 14006KT 110V200 CAVOK 13/07 Q1018 NOSIG','EDDF','Frankfurt am Main Airport',13,11,'10,000+',113),(28,'EDDB 201120Z 16009KT CAVOK 10/03 Q1020 NOSIG','EDDB','Berlin Brandenburg Airport',10,17,'10,000+',48),(32,'EGLL 201050Z AUTO 18012KT 9999 NCD 13/07 Q1003 NOSIG','EGLL','London Heathrow Airport',13,22,'10,000+',26),(35,'LEMD 201100Z 18008KT 150V210 CAVOK 15/04 Q1015 NOSIG','LEMD','Adolfo Suárez Madrid–Barajas Airport',15,15,'10,000+',589),(37,'LEBL 201100Z VRB02KT 4000 BR OVC021 13/09 Q1021 NOSIG','LEBL','Barcelona International Airport',13,4,'4,000',2);
/*!40000 ALTER TABLE `metar` ENABLE KEYS */;
UNLOCK TABLES;
/*!40103 SET TIME_ZONE=@OLD_TIME_ZONE */;

/*!40101 SET SQL_MODE=@OLD_SQL_MODE */;
/*!40014 SET FOREIGN_KEY_CHECKS=@OLD_FOREIGN_KEY_CHECKS */;
/*!40014 SET UNIQUE_CHECKS=@OLD_UNIQUE_CHECKS */;
/*!40101 SET CHARACTER_SET_CLIENT=@OLD_CHARACTER_SET_CLIENT */;
/*!40101 SET CHARACTER_SET_RESULTS=@OLD_CHARACTER_SET_RESULTS */;
/*!40101 SET COLLATION_CONNECTION=@OLD_COLLATION_CONNECTION */;
/*!40111 SET SQL_NOTES=@OLD_SQL_NOTES */;

-- Dump completed on 2021-02-20 12:53:56
